0 FENGYUN 1C DEB
1 30139U 99025SU  13280.93968346  .00001111  00000-0  81817-3 0  1863
2 30139 098.4114 072.1489 0148140 128.9344 356.8602 13.92264036341661
0 FENGYUN 1C DEB
1 30139U 99025SU  13281.94605086  .00001108  00000-0  81610-3 0  1872
2 30139 098.4114 073.0631 0148100 126.1623 000.8945 13.92270498341807
0 FENGYUN 1C DEB
1 30139U 99025SU  13283.67110424  .00000914  00000-0  67752-3 0  1887
2 30139 098.4113 074.6303 0148008 121.4153 007.1174 13.92276049342041
0 FENGYUN 1C DEB
1 30139U 99025SU  13285.68243683  .00001009  00000-0  74570-3 0  1909
2 30139 098.4115 076.4574 0147931 115.8676 008.2762 13.92278625342322
0 FENGYUN 1C DEB
1 30139U 99025SU  13286.68824230  .00001228  00000-0  90151-3 0  1910
2 30139 098.4117 077.3710 0147884 113.0885 009.5711 13.92279634342469
0 FENGYUN 1C DEB
1 30139U 99025SU  13287.69413266  .00001465  00000-0  10702-2 0  1922
2 30139 098.4119 078.2851 0147865 110.3019 011.3006 13.92282699342604
0 FENGYUN 1C DEB
1 30139U 99025SU  13288.91713490  .00001569  00000-0  11446-2 0  1932
2 30139 098.4121 079.3961 0147830 106.9184 021.2490 13.92286564342777
0 FENGYUN 1C DEB
1 30139U 99025SU  13291.41950444  .00001410  00000-0  10308-2 0  1945
2 30139 098.4125 081.6695 0147757 099.9936 323.7051 13.92294793343121
0 FENGYUN 1C DEB
1 30139U 99025SU  13292.42762905  .00001440  00000-0  10524-2 0  1954
2 30139 098.4126 082.5855 0147741 097.2078 336.6761 13.92298167343266
0 FENGYUN 1C DEB
1 30139U 99025SU  13293.73185206  .00001322  00000-0  96835-3 0  1962
2 30139 098.4126 083.7704 0147647 093.6036 033.7839 13.92303133343442
0 FENGYUN 1C DEB
1 30139U 99025SU  13294.73651299  .00001302  00000-0  95441-3 0  1974
2 30139 098.4125 084.6835 0147599 090.8264 029.4245 13.92306938343588
